{
  "norad_id": 56394,
  "name": "STARLINK-6305",
  "history": [
    {
      "epoch": "2026-03-28T22:04:47.851392Z",
      "apogee_km": 486.1553265699131,
      "perigee_km": 484.8841773394497,
      "latitude_deg": 5.045742968690742e-05,
      "longitude_deg": -79.78005460938414,
      "height_km": 485.3183044391571,
      "semi_major_axis_km": 6863.656751954681,
      "eccentricity": 9.26e-05,
      "inclination_deg": 43.0012,
      "raan_deg": 77.7528,
      "arg_perigee_deg": 268.0116,
      "mean_anomaly_deg": 92.063,
      "mean_motion_rev_day": 15.26755268
    }
  ]
}